NORAD_CAT_ID,OBJECT_NAME,OBJECT_TYPE,EPOCH,MEAN_MOTION,ECCENTRICITY,INCLINATION,RA_OF_ASC_NODE,ARG_OF_PERICENTER,MEAN_ANOMALY,BSTAR,MEAN_MOTION_DOT,MEAN_MOTION_DDOT,TLE_LINE0,TLE_LINE1,TLE_LINE2,SEMIMAJOR_AXIS,PERIOD,APOGEE,PERIGEE,DECAYED
52310.0,STARLINK-3688,PAYLOAD,2023-10-13 13:09:08,15.08840136,0.0001601,53.2155,71.2492,87.3626,272.755,0.00012695,1.733e-05,0.0,0 STARLINK-3688,1 52310U 22041BB  23286.54801187  .00001733  00000-0  12695-3 0  9995,2 52310  53.2155  71.2492 0001601  87.3626 272.7550 15.08840136 83295,6917.88,95.438,540.853,538.637,0.0
52310.0,STARLINK-3688,PAYLOAD,2023-10-13 14:44:31,15.08841274,0.0001589,53.2161,70.9521,90.0973,270.0201,0.00017274,2.462e-05,0.0,0 STARLINK-3688,1 52310U 22041BB  23286.61425105  .00002462  00000-0  17274-3 0  9993,2 52310  53.2161  70.9521 0001589  90.0973 270.0201 15.08841274 83302,6917.876,95.437,540.841,538.642,0.0
52310.0,STARLINK-3688,PAYLOAD,2023-10-13 19:30:40,15.08850967,0.0001539,53.2171,70.0585,95.9413,264.1754,0.00023957,3.528e-05,0.0,0 STARLINK-3688,1 52310U 22041BB  23286.81296618  .00003528  00000-0  23957-3 0  9999,2 52310  53.2171  70.0585 0001539  95.9413 264.1754 15.08850967 83331,6917.847,95.437,540.777,538.647,0.0
52310.0,STARLINK-3688,PAYLOAD,2023-10-14 13:00:10,15.08624522,0.0001392,53.2162,66.7897,144.5832,215.5253,-0.0024466,-0.00038788,0.0,0 STARLINK-3688,1 52310U 22041BB  23287.54178377 -.00038788  00000-0 -24466-2 0  9994,2 52310  53.2162  66.7897 0001392 144.5832 215.5253 15.08624522 83444,6918.539,95.451,541.367,539.441,0.0
52310.0,STARLINK-3688,PAYLOAD,2023-10-14 20:57:42,15.08275821,0.0001539,53.2179,65.3066,74.0891,286.0271,-0.0043961,-0.00068524,0.0,0 STARLINK-3688,1 52310U 22041BB  23287.87341139 -.00068524  00000-0 -43961-2 0  9990,2 52310  53.2179  65.3066 0001539  74.0891 286.0271 15.08275821 83492,6919.605,95.473,542.535,540.405,0.0
52310.0,STARLINK-3688,PAYLOAD,2023-10-15 00:08:37,15.08208827,0.0001464,53.2175,64.7112,91.4891,268.6268,-0.0048091,-0.00074733,0.0,0 STARLINK-3688,1 52310U 22041BB  23288.00598630 -.00074733  00000-0 -48091-2 0  9994,2 52310  53.2175  64.7112 0001464  91.4891 268.6268 15.08208827 83510,6919.81,95.477,542.688,540.662,0.0
52310.0,STARLINK-3688,PAYLOAD,2023-10-15 09:41:26,15.0796267,0.0001191,53.2178,62.9288,327.9041,32.1878,-0.0063469,-0.00097568,0.0,0 STARLINK-3688,1 52310U 22041BB  23288.40378138 -.00097568  00000-0 -63469-2 0  9994,2 52310  53.2178  62.9288 0001191 327.9041  32.1878 15.07962670 83577,6920.563,95.493,543.253,541.604,0.0
52310.0,STARLINK-3688,PAYLOAD,2023-10-15 14:27:52,15.07857317,0.0001198,53.2176,62.039,79.8328,280.2799,-0.0069476,-0.00106339,0.0,0 STARLINK-3688,1 52310U 22041BB  23288.60268905 -.00106339  00000-0 -69476-2 0  9997,2 52310  53.2176  62.0390 0001198  79.8328 280.2799 15.07857317 83601,6920.886,95.5,543.58,541.922,0.0
52310.0,STARLINK-3688,PAYLOAD,2023-10-15 22:00:00,15.07182012,0.000138,53.2165,60.6298,77.1886,188.8961,0.00095987,0.00014348,0.0,0 STARLINK-3688,1 52310U 22041BB  23288.91667824  .00014348  00000-0  95987-3 0  9997,2 52310  53.2165  60.6298 0001380  77.1886 188.8961 15.07182012 83644,6922.953,95.543,545.773,543.862,0.0
52310.0,STARLINK-3688,PAYLOAD,2023-10-16 14:00:01,15.07234989,0.0001454,53.2168,57.6447,78.3359,206.9792,-0.0042799,-0.00064894,0.0,0 STARLINK-3688,1 52310U 22041BB  23289.58334491 -.00064894  00000-0 -42799-2 0  9997,2 52310  53.2168  57.6447 0001454  78.3359 206.9792 15.07234989  5761,6922.791,95.539,545.662,543.649,0.0
52310.0,STARLINK-3688,PAYLOAD,2023-10-16 22:00:00,15.07196739,0.0001527,53.2164,56.1523,72.0502,222.9078,0.00069787,0.00010353,0.0,0 STARLINK-3688,1 52310U 22041BB  23289.91667824  .00010353  00000-0  69787-3 0  9999,2 52310  53.2164  56.1523 0001527  72.0502 222.9078 15.07196739  5819,6922.908,95.542,545.83,543.716,0.0
52310.0,STARLINK-3688,PAYLOAD,2023-10-17 00:00:00,15.07209371,0.000153,53.2165,55.7786,74.2182,313.142,-0.00072233,-0.00011263,0.0,0 STARLINK-3688,1 52310U 22041BB  23290.00001157 -.00011263  00000-0 -72233-3 0  9995,2 52310  53.2165  55.7786 0001530  74.2182 313.1420 15.07209371 83815,6922.869,95.541,545.793,543.675,0.0
52310.0,STARLINK-3688,PAYLOAD,2023-10-17 14:00:01,15.07253233,0.0001563,53.2165,53.1673,78.0243,236.1888,-0.0059745,-0.00090201,0.0,0 STARLINK-3688,1 52310U 22041BB  23290.58334491 -.00090201  00000-0 -59745-2 0  9999,2 52310  53.2165  53.1673 0001563  78.0243 236.1888 15.07253233  5764,6922.735,95.538,545.682,543.518,0.0
52310.0,STARLINK-3688,PAYLOAD,2023-10-17 22:00:00,15.07190256,0.0001519,53.2163,51.6748,77.6119,246.2536,-0.00015295,-2.61e-05,0.0,0 STARLINK-3688,1 52310U 22041BB  23290.91667824 -.00002610  00000-0 -15295-3 0  9995,2 52310  53.2163  51.6748 0001519  77.6119 246.2536 15.07190256 83949,6922.928,95.542,545.844,543.741,0.0
52310.0,STARLINK-3688,PAYLOAD,2023-10-18 06:00:00,15.07168596,0.0001517,53.2163,50.1808,88.2964,245.184,0.0042273,0.0006459,0.0,0 STARLINK-3688,1 52310U 22041BB  23291.25001157  .00064590  00000-0  42273-2 0  9992,2 52310  53.2163  50.1808 0001517  88.2964 245.1840 15.07168596  5665,6922.994,95.543,545.909,543.809,0.0
52310.0,STARLINK-3688,PAYLOAD,2023-10-18 22:00:00,15.07202418,0.0001512,53.2163,47.1972,81.4379,271.2977,-1.7407e-05,-5.48e-06,0.0,0 STARLINK-3688,1 52310U 22041BB  23291.91667824 -.00000548  00000-0 -17407-4 0  9992,2 52310  53.2163  47.1972 0001512  81.4379 271.2977 15.07202418 84090,6922.89,95.541,545.802,543.709,0.0
52310.0,STARLINK-3688,PAYLOAD,2023-10-19 01:12:56,15.07214644,0.000145,53.2175,46.5971,84.2272,275.8885,6.6843e-05,7.34e-06,0.0,0 STARLINK-3688,1 52310U 22041BB  23292.05065708  .00000734  00000-0  66843-4 0  9994,2 52310  53.2175  46.5971 0001450  84.2272 275.8885 15.07214644 84125,6922.853,95.54,545.722,543.714,0.0
52310.0,STARLINK-3688,PAYLOAD,2023-10-19 12:21:21,15.07237302,0.0001648,53.2167,44.5189,77.8001,282.3175,-0.00016324,-2.77e-05,0.0,0 STARLINK-3688,1 52310U 22041BB  23292.51483352 -.00002770  00000-0 -16324-3 0  9996,2 52310  53.2167  44.5189 0001648  77.8001 282.3175 15.07237302 84190,6922.784,95.539,545.789,543.508,0.0
52310.0,STARLINK-3688,PAYLOAD,2023-10-19 17:07:49,15.07227167,0.0001655,53.2153,43.6252,89.0329,271.0852,0.0001356,1.782e-05,0.0,0 STARLINK-3688,1 52310U 22041BB  23292.71376484  .00001782  00000-0  13560-3 0  9994,2 52310  53.2153  43.6252 0001655  89.0329 271.0852 15.07227167 84221,6922.815,95.54,545.825,543.534,0.0
52310.0,STARLINK-3688,PAYLOAD,2023-10-20 01:05:13,15.07251665,0.0001568,53.2167,42.1428,97.8028,262.3141,0.00049339,7.244e-05,0.0,0 STARLINK-3688,1 52310U 22041BB  23293.04529373  .00007244  00000-0  49339-3 0  9990,2 52310  53.2167  42.1428 0001568  97.8028 262.3141 15.07251665 84270,6922.74,95.538,545.69,543.519,0.0
52310.0,STARLINK-3688,PAYLOAD,2023-10-20 12:13:19,15.07600598,0.0001123,53.2167,40.0635,62.3685,297.742,0.0053696,0.00083312,0.0,0 STARLINK-3688,1 52310U 22041BB  23293.50925651  .00083312  00000-0  53696-2 0  9990,2 52310  53.2167  40.0635 0001123  62.3685 297.7420 15.07600598 84343,6921.671,95.516,544.314,542.759,0.0
52310.0,STARLINK-3688,PAYLOAD,2023-10-20 16:59:39,15.07702923,0.0001617,53.218,39.17,77.5333,282.584,0.0062648,0.0009772,0.0,0 STARLINK-3688,1 52310U 22041BB  23293.70809076  .00097720  00000-0  62648-2 0  9999,2 52310  53.2180  39.1700 0001617  77.5333 282.5840 15.07702923 84372,6921.358,95.51,544.342,542.104,0.0
52310.0,STARLINK-3688,PAYLOAD,2023-10-21 12:04:34,15.08285946,0.0001448,53.2173,35.6036,84.0546,276.0611,0.011021,0.00176852,0.0,0 STARLINK-3688,1 52310U 22041BB  23294.50317948  .00176852  00000-0  11021-1 0  9992,2 52310  53.2173  35.6036 0001448  84.0546 276.0611 15.08285946 84497,6919.574,95.473,542.441,540.437,0.0
52310.0,STARLINK-3688,PAYLOAD,2023-10-21 13:39:59,15.08311459,0.0001236,53.2171,35.3046,105.5748,254.5381,0.010922,0.00175346,0.0,0 STARLINK-3688,1 52310U 22041BB  23294.56943449  .00175346  00000-0  10922-1 0  9995,2 52310  53.2171  35.3046 0001236 105.5748 254.5381 15.08311459 84507,6919.496,95.471,542.217,540.506,0.0
52310.0,STARLINK-3688,PAYLOAD,2023-10-21 22:00:00,15.0881698,9.33e-05,53.2172,33.7487,79.2496,7.8335,0.00049059,7.524e-05,0.0,0 STARLINK-3688,1 52310U 22041BB  23294.91667824  .00007524  00000-0  49059-3 0  9991,2 52310  53.2172  33.7487 0000933  79.2496   7.8335 15.08816980 84551,6917.951,95.439,540.461,539.17,0.0
52310.0,STARLINK-3688,PAYLOAD,2023-10-22 00:00:00,15.08816986,8.99e-05,53.2173,33.3741,85.007,94.9675,0.0011576,0.00018172,0.0,0 STARLINK-3688,1 52310U 22041BB  23295.00001157  .00018172  00000-0  11576-2 0  9996,2 52310  53.2173  33.3741 0000899  85.0070  94.9675 15.08816986  5783,6917.951,95.439,540.438,539.194,0.0
52310.0,STARLINK-3688,PAYLOAD,2023-10-22 14:00:01,15.08841616,0.000101,53.2174,30.7567,80.3943,29.8276,-0.0013513,-0.0002173,0.0,0 STARLINK-3688,1 52310U 22041BB  23295.58334491 -.00021730  00000-0 -13513-2 0  9998,2 52310  53.2174  30.7567 0001010  80.3943  29.8276 15.08841616  5764,6917.875,95.437,540.439,539.042,0.0
52310.0,STARLINK-3688,PAYLOAD,2023-10-23 00:00:02,15.08841707,9.4e-05,53.2173,28.8849,87.0029,127.7694,0.00080297,0.00012515,0.0,0 STARLINK-3688,1 52310U 22041BB  23296.00002315  .00012515  00000-0  80297-3 0  9996,2 52310  53.2173  28.8849 0000940  87.0029 127.7694 15.08841707  5824,6917.875,95.437,540.39,539.09,0.0
52310.0,STARLINK-3688,PAYLOAD,2023-10-23 06:00:00,15.08844241,0.0001005,53.2175,27.7622,95.8181,37.5844,0.002509,0.00039873,0.0,0 STARLINK-3688,1 52310U 22041BB  23296.25001157  .00039873  00000-0  25090-2 0  9991,2 52310  53.2175  27.7622 0001005  95.8181  37.5844 15.08844241 84752,6917.867,95.437,540.428,539.037,0.0
52310.0,STARLINK-3688,PAYLOAD,2023-10-23 14:00:01,15.0886903,0.0001011,53.2173,26.2676,86.1195,58.9646,-0.0039364,-0.00062441,0.0,0 STARLINK-3688,1 52310U 22041BB  23296.58335648 -.00062441  00000-0 -39364-2 0  9990,2 52310  53.2173  26.2676 0001011  86.1195  58.9646 15.08869030 84804,6917.792,95.436,540.356,538.957,0.0
